COMMENT,ORIGINATOR,NORAD_CAT_ID,OBJECT_NAME,OBJECT_TYPE,CLASSIFICATION_TYPE,INTLDES,EPOCH,EPOCH_MICROSECONDS,MEAN_MOTION,ECCENTRICITY,INCLINATION,RA_OF_ASC_NODE,ARG_OF_PERICENTER,MEAN_ANOMALY,EPHEMERIS_TYPE,ELEMENT_SET_NO,REV_AT_EPOCH,BSTAR,MEAN_MOTION_DOT,MEAN_MOTION_DDOT,FILE,TLE_LINE0,TLE_LINE1,TLE_LINE2,OBJECT_ID,OBJECT_NUMBER,SEMIMAJOR_AXIS,PERIOD,APOGEE,PERIGEE,DECAYED
"GENERATED VIA SPACETRACK.ORG API","18 SPCS","56232","FENGYUN 3G","PAYLOAD","U","23055A","2024-03-14 06:28:31","375776","15.52601368","0.0009405","49.996","279.8791","2.8557","357.2462","0","999","5178","0.00052415","0.00032595","0","4225152","0 FENGYUN 3G","1 56232U 23055A   24074.26980759  .00032595  00000-0  52415-3 0  9990","2 56232  49.9960 279.8791 0009405   2.8557 357.2462 15.52601368 51782","2023-055A","56232","6787.271","92.748","415.520","402.753","0"
"GENERATED VIA SPACETRACK.ORG API","18 SPCS","56232","FENGYUN 3G","PAYLOAD","U","23055A","2024-03-14 12:39:13","711392","15.52619912","0.0009415","49.9956","278.5531","3.861","356.2428","0","999","5182","0.00053366","0.0003322","0","4225143","0 FENGYUN 3G","1 56232U 23055A   24074.52724203  .00033220  00000-0  53366-3 0  9991","2 56232  49.9956 278.5531 0009415   3.8610 356.2428 15.52619912 51827","2023-055A","56232","6787.217","92.746","415.472","402.692","0"
"GENERATED VIA SPACETRACK.ORG API","18 SPCS","56232","FENGYUN 3G","PAYLOAD","U","23055A","2024-03-14 20:22:36","230016","15.52644278","0.0009413","49.9958","276.8952","5.0631","355.043","0","999","5187","0.00057394","0.00035806","0","4225552","0 FENGYUN 3G","1 56232U 23055A   24074.84903044  .00035806  00000-0  57394-3 0  9995","2 56232  49.9958 276.8952 0009413   5.0631 355.0430 15.52644278 51870","2023-055A","56232","6787.146","92.745","415.400","402.622","0"
"GENERATED VIA SPACETRACK.ORG API","18 SPCS","56232","FENGYUN 3G","PAYLOAD","U","23055A","2024-03-14 20:22:36","230016","15.52644278","0.0009413","49.9958","276.8952","5.0631","355.043","0","999","5187","0.00057394","0.00035806","0","4225645","0 FENGYUN 3G","1 56232U 23055A   24074.84903044  .00035806  00000-0  57394-3 0  9995","2 56232  49.9958 276.8952 0009413   5.0631 355.0430 15.52644278 51870","2023-055A","56232","6787.146","92.745","415.400","402.622","0"
"GENERATED VIA SPACETRACK.ORG API","18 SPCS","56232","FENGYUN 3G","PAYLOAD","U","23055A","2024-03-15 02:33:17","939232","15.52664014","0.0009391","49.9958","275.5683","6.0557","354.0522","0","999","5191","0.0005851","0.00036541","0","4226142","0 FENGYUN 3G","1 56232U 23055A   24075.10645763  .00036541  00000-0  58510-3 0  9994","2 56232  49.9958 275.5683 0009391   6.0557 354.0522 15.52664014 51916","2023-055A","56232","6787.089","92.744","415.327","402.580","0"
"GENERATED VIA SPACETRACK.ORG API","18 SPCS","56232","FENGYUN 3G","PAYLOAD","U","23055A","2024-03-15 13:22:00","274368","15.5269546","0.0009359","49.9959","273.2472","7.6856","352.4253","0","999","5198","0.00054679","0.00034146","0","4226767","0 FENGYUN 3G","1 56232U 23055A   24075.55694762  .00034146  00000-0  54679-3 0  9997","2 56232  49.9959 273.2472 0009359   7.6856 352.4253 15.52695460 51980","2023-055A","56232","6786.997","92.742","415.214","402.510","0"
"GENERATED VIA SPACETRACK.ORG API","18 SPCS","56232","FENGYUN 3G","PAYLOAD","U","23055A","2024-03-15 19:32:41","238816","15.52714407","0.0009376","49.9961","271.9207","8.6695","351.4433","0","999","5202","0.00055781","0.00034871","0","4227190","0 FENGYUN 3G","1 56232U 23055A   24075.81436619  .00034871  00000-0  55781-3 0  9991","2 56232  49.9961 271.9207 0009376   8.6695 351.4433 15.52714407 52023","2023-055A","56232","6786.942","92.741","415.170","402.443","0"
"GENERATED VIA SPACETRACK.ORG API","18 SPCS","56232","FENGYUN 3G","PAYLOAD","U","23055A","2024-03-15 22:38:01","629024","15.52723718","0.0009389","49.9963","271.2573","9.1917","350.922","0","999","5204","0.00055617","0.00034779","0","4227250","0 FENGYUN 3G","1 56232U 23055A   24075.94307441  .00034779  00000-0  55617-3 0  9990","2 56232  49.9963 271.2573 0009389   9.1917 350.9220 15.52723718 52046","2023-055A","56232","6786.915","92.740","415.152","402.407","0"
"GENERATED VIA SPACETRACK.ORG API","18 SPCS","56232","FENGYUN 3G","PAYLOAD","U","23055A","2024-03-16 03:16:02","54496","15.52737742","0.0009411","49.9963","270.2623","9.9097","350.2054","0","999","5207","0.0005295","0.00033099","0","4227823","0 FENGYUN 3G","1 56232U 23055A   24076.13613489  .00033099  00000-0  52950-3 0  9995","2 56232  49.9963 270.2623 0009411   9.9097 350.2054 15.52737742 52077","2023-055A","56232","6786.874","92.739","415.126","402.352","0"
"GENERATED VIA SPACETRACK.ORG API","18 SPCS","56232","FENGYUN 3G","PAYLOAD","U","23055A","2024-03-16 12:32:02","527008","15.52763325","0.0009397","49.9963","268.2726","11.4039","348.714","0","999","5213","0.00050034","0.00031272","0","4228476","0 FENGYUN 3G","1 56232U 23055A   24076.52225147  .00031272  00000-0  50034-3 0  9990","2 56232  49.9963 268.2726 0009397  11.4039 348.7140 15.52763325 52136","2023-055A","56232","6786.799","92.738","415.042","402.287","0"
"GENERATED VIA SPACETRACK.ORG API","18 SPCS","56232","FENGYUN 3G","PAYLOAD","U","23055A","2024-03-16 12:32:02","527008","15.52763325","0.0009397","49.9963","268.2726","11.4039","348.714","0","999","5213","0.00050034","0.00031272","0","4228482","0 FENGYUN 3G","1 56232U 23055A   24076.52225147  .00031272  00000-0  50034-3 0  9990","2 56232  49.9963 268.2726 0009397  11.4039 348.7140 15.52763325 52136","2023-055A","56232","6786.799","92.738","415.042","402.287","0"
"GENERATED VIA SPACETRACK.ORG API","18 SPCS","56232","FENGYUN 3G","PAYLOAD","U","23055A","2024-03-16 20:15:22","477824","15.52786961","0.0009432","49.9964","266.6144","12.7721","347.3484","0","999","5218","0.00053659","0.00033611","0","4228999","0 FENGYUN 3G","1 56232U 23055A   24076.84401016  .00033611  00000-0  53659-3 0  9991","2 56232  49.9964 266.6144 0009432  12.7721 347.3484 15.52786961 52187","2023-055A","56232","6786.730","92.736","414.997","402.194","0"
"GENERATED VIA SPACETRACK.ORG API","18 SPCS","56232","FENGYUN 3G","PAYLOAD","U","23055A","2024-03-16 21:48:02","425824","15.52791367","0.000944","49.9964","266.2827","13.0517","347.0693","0","999","5219","0.00053659","0.00033617","0","4229019","0 FENGYUN 3G","1 56232U 23055A   24076.90836141  .00033617  00000-0  53659-3 0  9995","2 56232  49.9964 266.2827 0009440  13.0517 347.0693 15.52791367 52193","2023-055A","56232","6786.717","92.736","414.989","402.176","0"
"GENERATED VIA SPACETRACK.ORG API","18 SPCS","56232","FENGYUN 3G","PAYLOAD","U","23055A","2024-03-17 02:26:02","136768","15.52806194","0.0009397","49.9963","265.2878","13.8401","346.2822","0","999","5222","0.00055045","0.00034519","0","4229430","0 FENGYUN 3G","1 56232U 23055A   24077.10141362  .00034519  00000-0  55045-3 0  9995","2 56232  49.9963 265.2878 0009397  13.8401 346.2822 15.52806194 52222","2023-055A","56232","6786.674","92.735","414.917","402.162","0"
"GENERATED VIA SPACETRACK.ORG API","18 SPCS","56232","FENGYUN 3G","PAYLOAD","U","23055A","2024-03-17 11:42:01","173312","15.52831241","0.0009412","49.9959","263.2982","15.4712","344.6541","0","999","5228","0.00051918","0.00032553","0","4230122","0 FENGYUN 3G","1 56232U 23055A   24077.48751358  .00032553  00000-0  51918-3 0  9999","2 56232  49.9959 263.2982 0009412  15.4712 344.6541 15.52831241 52289","2023-055A","56232","6786.601","92.734","414.854","402.079","0"
"GENERATED VIA SPACETRACK.ORG API","18 SPCS","56232","FENGYUN 3G","PAYLOAD","U","23055A","2024-03-17 13:14:40","971840","15.52834277","0.0009422","49.9958","262.9664","15.8496","344.2764","0","999","5229","0.00049543","0.0003104","0","4230125","0 FENGYUN 3G","1 56232U 23055A   24077.55186310  .00031040  00000-0  49543-3 0  9998","2 56232  49.9958 262.9664 0009422  15.8496 344.2764 15.52834277 52291","2023-055A","56232","6786.592","92.734","414.852","402.063","0"
"GENERATED VIA SPACETRACK.ORG API","18 SPCS","56232","FENGYUN 3G","PAYLOAD","U","23055A","2024-03-17 20:57:59","656032","15.52858239","0.0009439","49.9959","261.3083","17.0215","343.1067","0","999","5234","0.00054686","0.00034356","0","4230662","0 FENGYUN 3G","1 56232U 23055A   24077.87360713  .00034356  00000-0  54686-3 0  9991","2 56232  49.9959 261.3083 0009439  17.0215 343.1067 15.52858239 52345","2023-055A","56232","6786.523","92.732","414.793","401.982","0"
"GENERATED VIA SPACETRACK.ORG API","18 SPCS","56232","FENGYUN 3G","PAYLOAD","U","23055A","2024-03-17 20:57:59","656032","15.52858239","0.0009439","49.9959","261.3083","17.0215","343.1067","0","999","5234","0.00054686","0.00034356","0","4230670","0 FENGYUN 3G","1 56232U 23055A   24077.87360713  .00034356  00000-0  54686-3 0  9991","2 56232  49.9959 261.3083 0009439  17.0215 343.1067 15.52858239 52345","2023-055A","56232","6786.523","92.732","414.793","401.982","0"
"GENERATED VIA SPACETRACK.ORG API","18 SPCS","56232","FENGYUN 3G","PAYLOAD","U","23055A","2024-03-18 01:35:58","665408","15.52871995","0.000943","49.9957","260.3132","17.7363","342.3932","0","999","5237","0.0005416","0.00034037","0","4231188","0 FENGYUN 3G","1 56232U 23055A   24078.06665122  .00034037  00000-0  54160-3 0  9998","2 56232  49.9957 260.3132 0009430  17.7363 342.3932 15.52871995 52378","2023-055A","56232","6786.483","92.731","414.747","401.948","0"
"GENERATED VIA SPACETRACK.ORG API","18 SPCS","56232","FENGYUN 3G","PAYLOAD","U","23055A","2024-03-18 12:24:35","806176","15.5290412","0.0009441","49.9954","257.9921","19.4587","340.6739","0","999","5244","0.00055183","0.00034732","0","4231669","0 FENGYUN 3G","1 56232U 23055A   24078.51708109  .00034732  00000-0  55183-3 0  9999","2 56232  49.9954 257.9921 0009441  19.4587 340.6739 15.52904120 52443","2023-055A","56232","6786.389","92.729","414.661","401.847","0"
